{
  "type": "FeatureCollection",
  "features": [
    {
      "type": "Feature",
      "properties": {
        "norad_id": 40730,
        "name": "GPS BIIF-10 (PRN 08)",
        "group": "gps-ops",
        "lat": -16.26898327187598,
        "lon": -97.63921848356759,
        "alt_km": 19981.34024582143,
        "timestamp": "2025-12-18T04:58:34.835241+00:00",
        "meta_object_name": "GPS BIIF-10 (PRN 08)",
        "meta_object_id": "2015-033A",
        "meta_epoch": "2025-12-17T17:40:14.806272",
        "meta_mean_motion": 2.00565457,
        "meta_eccentricity": 0.01112676,
        "meta_inclination": 54.1263,
        "meta_ra_of_asc_node": 274.5673,
        "meta_arg_of_pericenter": 26.9306,
        "meta_mean_anomaly": 333.6659,
        "meta_ephemeris_type": 0,
        "meta_classification_type": "U",
        "meta_norad_cat_id": 40730,
        "meta_element_set_no": 999,
        "meta_rev_at_epoch": 7635,
        "meta_bstar": 0,
        "meta_mean_motion_dot": -4.1e-07,
        "meta_mean_motion_ddot": 0,
        "tle_line1": "1 40730U 15033A   25351.73628248 -.00000041  00000+0  00000+0 0  9996",
        "tle_line2": "2 40730  54.1263 274.5673 0111267  26.9306 333.6659  2.00565457 76355"
      },
      "geometry": {
        "type": "Point",
        "coordinates": [
          -97.63921848356759,
          -16.26898327187598
        ]
      }
    },
    {
      "type": "Feature",
      "properties": {
        "norad_id": 41019,
        "name": "GPS BIIF-11 (PRN 10)",
        "group": "gps-ops",
        "lat": -47.97913738557419,
        "lon": -8.667751314991506,
        "alt_km": 20070.87256379702,
        "timestamp": "2025-12-18T04:58:34.835252+00:00",
        "meta_object_name": "GPS BIIF-11 (PRN 10)",
        "meta_object_id": "2015-062A",
        "meta_epoch": "2025-12-17T07:07:49.922112",
        "meta_mean_motion": 2.00567224,
        "meta_eccentricity": 0.01109439,
        "meta_inclination": 56.8355,
        "meta_ra_of_asc_node": 37.826,
        "meta_arg_of_pericenter": 230.0627,
        "meta_mean_anomaly": 129.0159,
        "meta_ephemeris_type": 0,
        "meta_classification_type": "U",
        "meta_norad_cat_id": 41019,
        "meta_element_set_no": 999,
        "meta_rev_at_epoch": 7418,
        "meta_bstar": 0,
        "meta_mean_motion_dot": -7.6e-07,
        "meta_mean_motion_ddot": 0,
        "tle_line1": "1 41019U 15062A   25351.29710558 -.00000076  00000+0  00000+0 0  9994",
        "tle_line2": "2 41019  56.8355  37.8260 0110943 230.0627 129.0159  2.00567224 74188"
      },
      "geometry": {
        "type": "Point",
        "coordinates": [
          -8.667751314991506,
          -47.97913738557419
        ]
      }
    },
    {
      "type": "Feature",
      "properties": {
        "norad_id": 41328,
        "name": "GPS BIIF-12 (PRN 32)",
        "group": "gps-ops",
        "lat": -43.39308078613026,
        "lon": -42.70571769969197,
        "alt_km": 19944.23249095502,
        "timestamp": "2025-12-18T04:58:34.835263+00:00",
        "meta_object_name": "GPS BIIF-12 (PRN 32)",
        "meta_object_id": "2016-007A",
        "meta_epoch": "2025-12-17T09:06:47.085696",
        "meta_mean_motion": 2.00560552,
        "meta_eccentricity": 0.0092397,
        "meta_inclination": 55.4087,
        "meta_ra_of_asc_node": 96.6729,
        "meta_arg_of_pericenter": 243.6823,
        "meta_mean_anomaly": 115.3496,
        "meta_ephemeris_type": 0,
        "meta_classification_type": "U",
        "meta_norad_cat_id": 41328,
        "meta_element_set_no": 999,
        "meta_rev_at_epoch": 7219,
        "meta_bstar": 0,
        "meta_mean_motion_dot": -3.9e-07,
        "meta_mean_motion_ddot": 0,
        "tle_line1": "1 41328U 16007A   25351.37971164 -.00000039  00000+0  00000+0 0  9997",
        "tle_line2": "2 41328  55.4087  96.6729 0092397 243.6823 115.3496  2.00560552 72199"
      },
      "geometry": {
        "type": "Point",
        "coordinates": [
          -42.70571769969197,
          -43.39308078613026
        ]
      }
    },
    {
      "type": "Feature",
      "properties": {
        "norad_id": 43873,
        "name": "GPS BIII-1  (PRN 04)",
        "group": "gps-ops",
        "lat": 38.65339308452292,
        "lon": -113.8998532875633,
        "alt_km": 20134.981450351668,
        "timestamp": "2025-12-18T04:58:34.835279+00:00",
        "meta_object_name": "GPS BIII-1  (PRN 04)",
        "meta_object_id": "2018-109A",
        "meta_epoch": "2025-12-15T18:29:34.483200",
        "meta_mean_motion": 2.00553802,
        "meta_eccentricity": 0.00374359,
        "meta_inclination": 55.5688,
        "meta_ra_of_asc_node": 99.4273,
        "meta_arg_of_pericenter": 195.145,
        "meta_mean_anomaly": 336.5518,
        "meta_ephemeris_type": 0,
        "meta_classification_type": "U",
        "meta_norad_cat_id": 43873,
        "meta_element_set_no": 999,
        "meta_rev_at_epoch": 5139,
        "meta_bstar": 0,
        "meta_mean_motion_dot": -3.2e-07,
        "meta_mean_motion_ddot": 0,
        "tle_line1": "1 43873U 18109A   25349.77053800 -.00000032  00000+0  00000+0 0  9991",
        "tle_line2": "2 43873  55.5688  99.4273 0037435 195.1450 336.5518  2.00553802 51399"
      },
      "geometry": {
        "type": "Point",
        "coordinates": [
          -113.8998532875633,
          38.65339308452292
        ]
      }
    },
    {
      "type": "Feature",
      "properties": {
        "norad_id": 44506,
        "name": "GPS BIII-2  (PRN 18)",
        "group": "gps-ops",
        "lat": 22.976876968216484,
        "lon": -4.864614526122635,
        "alt_km": 20329.959005237204,
        "timestamp": "2025-12-18T04:58:34.835291+00:00",
        "meta_object_name": "GPS BIII-2  (PRN 18)",
        "meta_object_id": "2019-056A",
        "meta_epoch": "2025-12-17T03:59:08.759040",
        "meta_mean_motion": 2.00566605,
        "meta_eccentricity": 0.00577134,
        "meta_inclination": 55.7199,
        "meta_ra_of_asc_node": 338.3768,
        "meta_arg_of_pericenter": 198.5058,
        "meta_mean_anomaly": 157.947,
        "meta_ephemeris_type": 0,
        "meta_classification_type": "U",
        "meta_norad_cat_id": 44506,
        "meta_element_set_no": 999,
        "meta_rev_at_epoch": 4641,
        "meta_bstar": 0,
        "meta_mean_motion_dot": -8.7e-07,
        "meta_mean_motion_ddot": 0,
        "tle_line1": "1 44506U 19056A   25351.16607360 -.00000087  00000+0  00000+0 0  9999",
        "tle_line2": "2 44506  55.7199 338.3768 0057713 198.5058 157.9470  2.00566605 46412"
      },
      "geometry": {
        "type": "Point",
        "coordinates": [
          -4.864614526122635,
          22.976876968216484
        ]
      }
    },
    {
      "type": "Feature",
      "properties": {
        "norad_id": 45854,
        "name": "GPS BIII-3  (PRN 23)",
        "group": "gps-ops",
        "lat": -22.443208099448167,
        "lon": 20.159490044417257,
        "alt_km": 20286.36932763546,
        "timestamp": "2025-12-18T04:58:34.835302+00:00",
        "meta_object_name": "GPS BIII-3  (PRN 23)",
        "meta_object_id": "2020-041A",
        "meta_epoch": "2025-12-17T06:02:11.568192",
        "meta_mean_motion": 2.00562016,
        "meta_eccentricity": 0.00605926,
        "meta_inclination": 56.5499,
        "meta_ra_of_asc_node": 36.0099,
        "meta_arg_of_pericenter": 203.5861,
        "meta_mean_anomaly": 158.5614,
        "meta_ephemeris_type": 0,
        "meta_classification_type": "U",
        "meta_norad_cat_id": 45854,
        "meta_element_set_no": 999,
        "meta_rev_at_epoch": 4039,
        "meta_bstar": 0,
        "meta_mean_motion_dot": -7.7e-07,
        "meta_mean_motion_ddot": 0,
        "tle_line1": "1 45854U 20041A   25351.25152278 -.00000077  00000+0  00000+0 0  9994",
        "tle_line2": "2 45854  56.5499  36.0099 0060592 203.5861 158.5614  2.00562016 40398"
      },
      "geometry": {
        "type": "Point",
        "coordinates": [
          20.159490044417257,
          -22.443208099448167
        ]
      }
    },
    {
      "type": "Feature",
      "properties": {
        "norad_id": 46826,
        "name": "GPS BIII-4  (PRN 14)",
        "group": "gps-ops",
        "lat": -42.08725390557284,
        "lon": 177.13813135078567,
        "alt_km": 20217.3658673757,
        "timestamp": "2025-12-18T04:58:34.835313+00:00",
        "meta_object_name": "GPS BIII-4  (PRN 14)",
        "meta_object_id": "2020-078A",
        "meta_epoch": "2025-12-16T01:06:13.902336",
        "meta_mean_motion": 2.00566891,
        "meta_eccentricity": 0.00647554,
        "meta_inclination": 54.0145,
        "meta_ra_of_asc_node": 218.2068,
        "meta_arg_of_pericenter": 203.3828,
        "meta_mean_anomaly": 339.3936,
        "meta_ephemeris_type": 0,
        "meta_classification_type": "U",
        "meta_norad_cat_id": 46826,
        "meta_element_set_no": 999,
        "meta_rev_at_epoch": 3783,
        "meta_bstar": 0,
        "meta_mean_motion_dot": 6.7e-07,
        "meta_mean_motion_ddot": 0,
        "tle_line1": "1 46826U 20078A   25350.04599424  .00000067  00000+0  00000+0 0  9996",
        "tle_line2": "2 46826  54.0145 218.2068 0064755 203.3828 339.3936  2.00566891 37831"
      },
      "geometry": {
        "type": "Point",
        "coordinates": [
          177.13813135078567,
          -42.08725390557284
        ]
      }
    }
  ]
}